[{"OBJECT_NAME":"BEIDOU-3 G3 (PRN 143)","OBJECT_ID":"2020-040A","EPOCH":"2026-03-15T02:08:56.598144","MEAN_MOTION":1.00270422,"ECCENTRICITY":0.00048456,"INCLINATION":2.2145,"RA_OF_ASC_NODE":67.1502,"ARG_OF_PERICENTER":325.3989,"MEAN_ANOMALY":282.9054,"EPHEMERIS_TYPE":0,"CLASSIFICATION_TYPE":"U","NORAD_CAT_ID":45807,"ELEMENT_SET_NO":999,"REV_AT_EPOCH":2112,"BSTAR":0,"MEAN_MOTION_DOT":-3.53e-6,"MEAN_MOTION_DDOT":0},{"OBJECT_NAME":"GALAXY 30 (WAAS/PRN 135)","OBJECT_ID":"2020-056C","EPOCH":"2026-03-15T06:09:55.986336","MEAN_MOTION":1.00270038,"ECCENTRICITY":0.00020217,"INCLINATION":0.0272,"RA_OF_ASC_NODE":152.7003,"ARG_OF_PERICENTER":214.1508,"MEAN_ANOMALY":133.4993,"EPHEMERIS_TYPE":0,"CLASSIFICATION_TYPE":"U","NORAD_CAT_ID":46114,"ELEMENT_SET_NO":999,"REV_AT_EPOCH":2035,"BSTAR":0,"MEAN_MOTION_DOT":0,"MEAN_MOTION_DDOT":0},{"OBJECT_NAME":"QZS-1R (QZSS/PRN 196)","OBJECT_ID":"2021-096A","EPOCH":"2026-03-14T11:37:12.588672","MEAN_MOTION":1.00287959,"ECCENTRICITY":0.0748407,"INCLINATION":37.2643,"RA_OF_ASC_NODE":80.9807,"ARG_OF_PERICENTER":269.9092,"MEAN_ANOMALY":130.192,"EPHEMERIS_TYPE":0,"CLASSIFICATION_TYPE":"U","NORAD_CAT_ID":49336,"ELEMENT_SET_NO":999,"REV_AT_EPOCH":1606,"BSTAR":0,"MEAN_MOTION_DOT":-2.13e-6,"MEAN_MOTION_DDOT":0},{"OBJECT_NAME":"QZS-6 (QZSS/PRN 200)","OBJECT_ID":"2025-023A","EPOCH":"2026-03-15T02:03:12.148128","MEAN_MOTION":1.00274709,"ECCENTRICITY":0.00022045,"INCLINATION":0.0202,"RA_OF_ASC_NODE":100.9048,"ARG_OF_PERICENTER":261.7048,"MEAN_ANOMALY":291.3489,"EPHEMERIS_TYPE":0,"CLASSIFICATION_TYPE":"U","NORAD_CAT_ID":62876,"ELEMENT_SET_NO":999,"REV_AT_EPOCH":401,"BSTAR":0,"MEAN_MOTION_DOT":-2.34e-6,"MEAN_MOTION_DDOT":0}]
